{"fetched_at":"2026-07-24T07:06:13.624Z","source":"https://celestrak.org/NORAD/elements/gp.php?GROUP=spire&FORMAT=JSON","constellation":"spire","records":[{"OBJECT_NAME":"LEMUR-2-VALHALLA","OBJECT_ID":"2024-022B","EPOCH":"2026-07-23T12:32:19.401792","CLASSIFICATION_TYPE":"U","MEAN_MOTION":15.40683975,"ECCENTRICITY":0.0008331,"INCLINATION":97.4083,"RA_OF_ASC_NODE":54.9723,"ARG_OF_PERICENTER":354.2117,"MEAN_ANOMALY":5.9031,"EPHEMERIS_TYPE":0,"NORAD_CAT_ID":58900,"ELEMENT_SET_NO":999,"REV_AT_EPOCH":13786,"BSTAR":0.0004072,"MEAN_MOTION_DOT":0.00016565,"MEAN_MOTION_DDOT":0},{"OBJECT_NAME":"LEMUR-2-CAEL","OBJECT_ID":"2024-022E","EPOCH":"2026-07-23T19:48:06.765984","CLASSIFICATION_TYPE":"U","MEAN_MOTION":15.42082327,"ECCENTRICITY":0.0006189,"INCLINATION":97.4061,"RA_OF_ASC_NODE":56.2815,"ARG_OF_PERICENTER":336.4214,"MEAN_ANOMALY":23.6748,"EPHEMERIS_TYPE":0,"NORAD_CAT_ID":58903,"ELEMENT_SET_NO":999,"REV_AT_EPOCH":13798,"BSTAR":0.00040928,"MEAN_MOTION_DOT":0.00017434,"MEAN_MOTION_DDOT":0},{"OBJECT_NAME":"LEMUR-2-JOHNNYTRUONG","OBJECT_ID":"2024-043BA","EPOCH":"2026-07-23T08:23:36.458592","CLASSIFICATION_TYPE":"U","MEAN_MOTION":15.63096316,"ECCENTRICITY":0.0003596,"INCLINATION":97.5396,"RA_OF_ASC_NODE":358.3729,"ARG_OF_PERICENTER":67.1091,"MEAN_ANOMALY":293.0546,"EPHEMERIS_TYPE":0,"NORAD_CAT_ID":59146,"ELEMENT_SET_NO":999,"REV_AT_EPOCH":13368,"BSTAR":0.00053296,"MEAN_MOTION_DOT":0.00048593,"MEAN_MOTION_DDOT":0},{"OBJECT_NAME":"LEMUR-2-TOMATOKECHUP","OBJECT_ID":"2024-149D","EPOCH":"2026-07-23T04:32:37.253184","CLASSIFICATION_TYPE":"U","MEAN_MOTION":15.36706847,"ECCENTRICITY":0.0003458,"INCLINATION":97.3787,"RA_OF_ASC_NODE":286.3428,"ARG_OF_PERICENTER":108.0349,"MEAN_ANOMALY":252.1272,"EPHEMERIS_TYPE":0,"NORAD_CAT_ID":60471,"ELEMENT_SET_NO":999,"REV_AT_EPOCH":10769,"BSTAR":0.0003275,"MEAN_MOTION_DOT":0.00011667,"MEAN_MOTION_DDOT":0},{"OBJECT_NAME":"LEMUR-2-STELLA","OBJECT_ID":"2024-149BT","EPOCH":"2026-07-23T16:11:27.341664","CLASSIFICATION_TYPE":"U","MEAN_MOTION":15.12506941,"ECCENTRICITY":0.0001471,"INCLINATION":97.6726,"RA_OF_ASC_NODE":287.3056,"ARG_OF_PERICENTER":123.3279,"MEAN_ANOMALY":236.8092,"EPHEMERIS_TYPE":0,"NORAD_CAT_ID":60533,"ELEMENT_SET_NO":999,"REV_AT_EPOCH":10601,"BSTAR":0.00063017,"MEAN_MOTION_DOT":0.00010915,"MEAN_MOTION_DDOT":0},{"OBJECT_NAME":"LEMUR-2-MARHISYAM","OBJECT_ID":"2024-149BW","EPOCH":"2026-07-23T16:03:11.803104","CLASSIFICATION_TYPE":"U","MEAN_MOTION":15.11897127,"ECCENTRICITY":0.0001901,"INCLINATION":97.687,"RA_OF_ASC_NODE":287.7849,"ARG_OF_PERICENTER":54.1979,"MEAN_ANOMALY":305.9428,"EPHEMERIS_TYPE":0,"NORAD_CAT_ID":60536,"ELEMENT_SET_NO":999,"REV_AT_EPOCH":10599,"BSTAR":0.0005653,"MEAN_MOTION_DOT":0.00009618,"MEAN_MOTION_DDOT":0},{"OBJECT_NAME":"LEMUR-2-AHMED-ASRAR","OBJECT_ID":"2024-149DN","EPOCH":"2026-07-23T16:00:11.082816","CLASSIFICATION_TYPE":"U","MEAN_MOTION":15.13447299,"ECCENTRICITY":0.0001927,"INCLINATION":97.6993,"RA_OF_ASC_NODE":290.0198,"ARG_OF_PERICENTER":179.8683,"MEAN_ANOMALY":180.2548,"EPHEMERIS_TYPE":0,"NORAD_CAT_ID":60576,"ELEMENT_SET_NO":999,"REV_AT_EPOCH":10608,"BSTAR":0.00067638,"MEAN_MOTION_DOT":0.00012034,"MEAN_MOTION_DDOT":0},{"OBJECT_NAME":"LEMUR-2-LLOYD","OBJECT_ID":"2024-149DP","EPOCH":"2026-07-23T16:45:23.353344","CLASSIFICATION_TYPE":"U","MEAN_MOTION":15.09872233,"ECCENTRICITY":0.0004099,"INCLINATION":97.674,"RA_OF_ASC_NODE":285.8607,"ARG_OF_PERICENTER":49.3077,"MEAN_ANOMALY":310.8508,"EPHEMERIS_TYPE":0,"NORAD_CAT_ID":60577,"ELEMENT_SET_NO":999,"REV_AT_EPOCH":10590,"BSTAR":0.00064595,"MEAN_MOTION_DOT":0.00010403,"MEAN_MOTION_DDOT":0},{"OBJECT_NAME":"LEMUR-2-SQUIRRELCOMM","OBJECT_ID":"2024-149DQ","EPOCH":"2026-07-23T12:01:07.125024","CLASSIFICATION_TYPE":"U","MEAN_MOTION":15.07513592,"ECCENTRICITY":0.0003886,"INCLINATION":97.6705,"RA_OF_ASC_NODE":285.3042,"ARG_OF_PERICENTER":288.6334,"MEAN_ANOMALY":71.4471,"EPHEMERIS_TYPE":0,"NORAD_CAT_ID":60578,"ELEMENT_SET_NO":999,"REV_AT_EPOCH":10587,"BSTAR":0.00041276,"MEAN_MOTION_DOT":0.00006206,"MEAN_MOTION_DDOT":0},{"OBJECT_NAME":"LEMUR-2-SIERRINI","OBJECT_ID":"2024-149DR","EPOCH":"2026-07-23T12:00:56.329344","CLASSIFICATION_TYPE":"U","MEAN_MOTION":15.11643901,"ECCENTRICITY":0.0006023,"INCLINATION":97.6835,"RA_OF_ASC_NODE":287.2691,"ARG_OF_PERICENTER":68.6196,"MEAN_ANOMALY":291.5676,"EPHEMERIS_TYPE":0,"NORAD_CAT_ID":60579,"ELEMENT_SET_NO":999,"REV_AT_EPOCH":10594,"BSTAR":0.00070551,"MEAN_MOTION_DOT":0.00011944,"MEAN_MOTION_DDOT":0},{"OBJECT_NAME":"LEMUR-2-WILSON","OBJECT_ID":"2025-009CP","EPOCH":"2026-07-23T03:57:47.613024","CLASSIFICATION_TYPE":"U","MEAN_MOTION":14.95300842,"ECCENTRICITY":0.00015377,"INCLINATION":97.7016,"RA_OF_ASC_NODE":281.9988,"ARG_OF_PERICENTER":276.741,"MEAN_ANOMALY":83.3636,"EPHEMERIS_TYPE":0,"NORAD_CAT_ID":62694,"ELEMENT_SET_NO":999,"REV_AT_EPOCH":8273,"BSTAR":0.00020949158,"MEAN_MOTION_DOT":0.00002251,"MEAN_MOTION_DDOT":0},{"OBJECT_NAME":"LEMUR-2-STAR-FOX","OBJECT_ID":"2025-009CR","EPOCH":"2026-07-23T15:34:49.037952","CLASSIFICATION_TYPE":"U","MEAN_MOTION":15.02931306,"ECCENTRICITY":0.0001381,"INCLINATION":97.6907,"RA_OF_ASC_NODE":285.9951,"ARG_OF_PERICENTER":5.9898,"MEAN_ANOMALY":354.1343,"EPHEMERIS_TYPE":0,"NORAD_CAT_ID":62696,"ELEMENT_SET_NO":999,"REV_AT_EPOCH":8303,"BSTAR":0.00061289,"MEAN_MOTION_DOT":0.00008175,"MEAN_MOTION_DDOT":0},{"OBJECT_NAME":"LEMUR-2-ARIANNA","OBJECT_ID":"2025-009CU","EPOCH":"2026-07-23T04:21:28.574208","CLASSIFICATION_TYPE":"U","MEAN_MOTION":15.02927089,"ECCENTRICITY":0.0001755,"INCLINATION":97.6849,"RA_OF_ASC_NODE":285.277,"ARG_OF_PERICENTER":20.3119,"MEAN_ANOMALY":339.8175,"EPHEMERIS_TYPE":0,"NORAD_CAT_ID":62699,"ELEMENT_SET_NO":999,"REV_AT_EPOCH":8296,"BSTAR":0.00061112,"MEAN_MOTION_DOT":0.00008151,"MEAN_MOTION_DDOT":0},{"OBJECT_NAME":"LEMUR-2-ALISIA","OBJECT_ID":"2025-009DB","EPOCH":"2026-07-23T05:14:59.504064","CLASSIFICATION_TYPE":"U","MEAN_MOTION":15.03260205,"ECCENTRICITY":0.0005036,"INCLINATION":97.696,"RA_OF_ASC_NODE":286.1551,"ARG_OF_PERICENTER":108.8576,"MEAN_ANOMALY":251.3196,"EPHEMERIS_TYPE":0,"NORAD_CAT_ID":62706,"ELEMENT_SET_NO":999,"REV_AT_EPOCH":10557,"BSTAR":0.00057394,"MEAN_MOTION_DOT":0.0000772,"MEAN_MOTION_DDOT":0},{"OBJECT_NAME":"LEMUR-2-ROUNDTRIPPER","OBJECT_ID":"2025-009DG","EPOCH":"2026-07-23T05:14:19.937184","CLASSIFICATION_TYPE":"U","MEAN_MOTION":15.04319119,"ECCENTRICITY":0.0004279,"INCLINATION":97.7239,"RA_OF_ASC_NODE":286.8567,"ARG_OF_PERICENTER":48.2093,"MEAN_ANOMALY":311.9498,"EPHEMERIS_TYPE":0,"NORAD_CAT_ID":62711,"ELEMENT_SET_NO":999,"REV_AT_EPOCH":8304,"BSTAR":0.00055869,"MEAN_MOTION_DOT":0.00007728,"MEAN_MOTION_DDOT":0},{"OBJECT_NAME":"LEMUR-2-MYNAMEISJEFF","OBJECT_ID":"2025-009DH","EPOCH":"2026-07-23T11:35:21.361632","CLASSIFICATION_TYPE":"U","MEAN_MOTION":15.04317939,"ECCENTRICITY":0.0004252,"INCLINATION":97.7285,"RA_OF_ASC_NODE":287.5241,"ARG_OF_PERICENTER":80.9119,"MEAN_ANOMALY":279.2587,"EPHEMERIS_TYPE":0,"NORAD_CAT_ID":62712,"ELEMENT_SET_NO":999,"REV_AT_EPOCH":8308,"BSTAR":0.00058065,"MEAN_MOTION_DOT":0.00008034,"MEAN_MOTION_DDOT":0}]}
