LEMUR-2-VALHALLA        
1 58900U 24022B   26204.52244678  .00016565  00000+0  40720-3 0  9992
2 58900  97.4083  54.9723 0008331 354.2117   5.9031 15.40683975137864
LEMUR-2-CAEL            
1 58903U 24022E   26204.82507831  .00017434  00000+0  40928-3 0  9997
2 58903  97.4061  56.2815 0006189 336.4214  23.6748 15.42082327137980
LEMUR-2-JOHNNYTRUONG    
1 59146U 24043BA  26204.34972753  .00048593  00000+0  53296-3 0  9998
2 59146  97.5396 358.3729 0003596  67.1091 293.0546 15.63096316133680
LEMUR-2-TOMATOKECHUP    
1 60471U 24149D   26204.18932006  .00011667  00000+0  32750-3 0  9991
2 60471  97.3787 286.3428 0003458 108.0349 252.1272 15.36706847107690
LEMUR-2-STELLA          
1 60533U 24149BT  26204.67462201  .00010915  00000+0  63017-3 0  9994
2 60533  97.6726 287.3056 0001471 123.3279 236.8092 15.12506941106019
LEMUR-2-MARHISYAM       
1 60536U 24149BW  26204.66888661  .00009618  00000+0  56530-3 0  9998
2 60536  97.6870 287.7849 0001901  54.1979 305.9428 15.11897127105997
LEMUR-2-AHMED-ASRAR     
1 60576U 24149DN  26204.66679494  .00012034  00000+0  67638-3 0  9991
2 60576  97.6993 290.0198 0001927 179.8683 180.2548 15.13447299106087
LEMUR-2-LLOYD           
1 60577U 24149DP  26204.69818696  .00010403  00000+0  64595-3 0  9991
2 60577  97.6740 285.8607 0004099  49.3077 310.8508 15.09872233105908
LEMUR-2-SQUIRRELCOMM    
1 60578U 24149DQ  26204.50077691  .00006206  00000+0  41276-3 0  9991
2 60578  97.6705 285.3042 0003886 288.6334  71.4471 15.07513592105878
LEMUR-2-SIERRINI        
1 60579U 24149DR  26204.50065196  .00011944  00000+0  70551-3 0  9992
2 60579  97.6835 287.2691 0006023  68.6196 291.5676 15.11643901105945
LEMUR-2-WILSON          
1 62694U 25009CP  26204.16513441  .00002251  00000+0  20949-3 0  9998
2 62694  97.7016 281.9988 0001537 276.7410  83.3636 14.95300842 82732
LEMUR-2-STAR-FOX        
1 62696U 25009CR  26204.64917868  .00008175  00000+0  61289-3 0  9997
2 62696  97.6907 285.9951 0001381   5.9898 354.1343 15.02931306 83037
LEMUR-2-ARIANNA         
1 62699U 25009CU  26204.18158072  .00008151  00000+0  61112-3 0  9992
2 62699  97.6849 285.2770 0001755  20.3119 339.8175 15.02927089 82966
LEMUR-2-ALISIA          
1 62706U 25009DB  26204.21874426  .00007720  00000+0  57394-3 0  9991
2 62706  97.6960 286.1551 0005036 108.8576 251.3196 15.03260205105576
LEMUR-2-ROUNDTRIPPER    
1 62711U 25009DG  26204.21828631  .00007728  00000+0  55869-3 0  9997
2 62711  97.7239 286.8567 0004279  48.2093 311.9498 15.04319119 83040
LEMUR-2-MYNAMEISJEFF    
1 62712U 25009DH  26204.48288613  .00008034  00000+0  58065-3 0  9999
2 62712  97.7285 287.5241 0004252  80.9119 279.2587 15.04317939 83089
